NORAD_CAT_ID,OBJECT_NAME,OBJECT_TYPE,EPOCH,MEAN_MOTION,ECCENTRICITY,INCLINATION,RA_OF_ASC_NODE,ARG_OF_PERICENTER,MEAN_ANOMALY,BSTAR,MEAN_MOTION_DOT,MEAN_MOTION_DDOT,TLE_LINE0,TLE_LINE1,TLE_LINE2,SEMIMAJOR_AXIS,PERIOD,APOGEE,PERIGEE,DECAYED
55651.0,STARLINK-5506,PAYLOAD,2023-03-16 23:55:22,15.69918262,0.0003422,70.0007,73.3912,266.2198,93.8607,7.6281e-06,7.04e-06,0.0,0 STARLINK-5506,1 55651U 23021Z   23075.99679150  .00000704  00000-0  76281-5 0  9993,2 55651  70.0007  73.3912 0003422 266.2198  93.8607 15.69918262  4824,6737.268,91.725,361.438,356.827,0.0
55651.0,STARLINK-5506,PAYLOAD,2023-03-17 12:09:23,15.69934022,0.0003372,70.0009,71.9576,263.5306,96.5505,5.953e-05,6.954e-05,0.0,0 STARLINK-5506,1 55651U 23021Z   23076.50652194  .00006954  00000-0  59530-4 0  9990,2 55651  70.0009  71.9576 0003372 263.5306  96.5505 15.69934022  4909,6737.223,91.724,361.36,356.816,0.0
55651.0,STARLINK-5506,PAYLOAD,2023-03-17 16:44:39,15.69926286,0.000308,70.0013,71.421,265.1377,94.9467,3.7044e-05,4.244e-05,0.0,0 STARLINK-5506,1 55651U 23021Z   23076.69767380  .00004244  00000-0  37044-4 0  9990,2 55651  70.0013  71.4210 0003080 265.1377  94.9467 15.69926286  5235,6737.245,91.724,361.185,357.035,0.0
55651.0,STARLINK-5506,PAYLOAD,2023-03-18 01:55:09,15.69930837,0.0003439,70.0012,70.3468,263.1648,96.9157,4.0299e-05,4.637e-05,0.0,0 STARLINK-5506,1 55651U 23021Z   23077.07997174  .00004637  00000-0  40299-4 0  9991,2 55651  70.0012  70.3468 0003439 263.1648  96.9157 15.69930837  4991,6737.232,91.724,361.414,356.78,0.0
55651.0,STARLINK-5506,PAYLOAD,2023-03-18 11:05:40,15.69932466,0.0003569,70.001,69.2717,263.9533,96.1256,4.2681e-05,4.924e-05,0.0,0 STARLINK-5506,1 55651U 23021Z   23077.46227100  .00004924  00000-0  42681-4 0  9995,2 55651  70.0010  69.2717 0003569 263.9533  96.1256 15.69932466  5351,6737.227,91.724,361.497,356.688,0.0
55651.0,STARLINK-5506,PAYLOAD,2023-03-19 05:26:41,15.6992894,0.0003531,70.0009,67.1213,261.69,98.3895,1.5506e-05,1.652e-05,0.0,0 STARLINK-5506,1 55651U 23021Z   23078.22687156  .00001652  00000-0  15506-4 0  9992,2 55651  70.0009  67.1213 0003531 261.6900  98.3895 15.69928940  5174,6737.237,91.724,361.481,356.723,0.0
55651.0,STARLINK-5506,PAYLOAD,2023-03-19 08:30:11,15.69932677,0.0003508,70.0003,66.7631,263.4951,96.5845,2.0493e-05,2.253e-05,0.0,0 STARLINK-5506,1 55651U 23021Z   23078.35430354  .00002253  00000-0  20493-4 0  9991,2 55651  70.0003  66.7631 0003508 263.4951  96.5845 15.69932677  5499,6737.227,91.724,361.455,356.728,0.0
55651.0,STARLINK-5506,PAYLOAD,2023-03-19 16:08:57,15.69924458,0.0003523,69.9994,65.867,265.7856,94.2937,7.0987e-06,6.41e-06,0.0,0 STARLINK-5506,1 55651U 23021Z   23078.67289028  .00000641  00000-0  70987-5 0  9999,2 55651  69.9994  65.8670 0003523 265.7856  94.2937 15.69924458  5545,6737.25,91.724,361.489,356.742,0.0
55651.0,STARLINK-5506,PAYLOAD,2023-03-20 10:29:59,15.69913611,0.0003396,70.0001,63.7178,266.7018,93.379,-2.0217e-05,-2.642e-05,0.0,0 STARLINK-5506,1 55651U 23021Z   23079.43749564 -.00002642  00000-0 -20217-4 0  9995,2 55651  70.0001  63.7178 0003396 266.7018  93.3790 15.69913611  5362,6737.281,91.725,361.434,356.858,0.0
55651.0,STARLINK-5506,PAYLOAD,2023-03-20 16:36:59,15.69918724,0.0003715,69.9992,63.0005,265.8976,94.1795,2.4405e-06,8e-07,0.0,0 STARLINK-5506,1 55651U 23021Z   23079.69236013  .00000080  00000-0  24405-5 0  9999,2 55651  69.9992  63.0005 0003715 265.8976  94.1795 15.69918724  5700,6737.267,91.724,361.634,356.629,0.0
55651.0,STARLINK-5506,PAYLOAD,2023-03-21 10:58:01,15.69909619,0.000312,69.9995,60.8509,271.0656,89.0183,-2.2563e-05,-2.923e-05,0.0,0 STARLINK-5506,1 55651U 23021Z   23080.45696671 -.00002923  00000-0 -22563-4 0  9997,2 55651  69.9995  60.8509 0003120 271.0656  89.0183 15.69909619  5528,6737.293,91.725,361.26,357.056,0.0
55651.0,STARLINK-5506,PAYLOAD,2023-03-22 05:19:02,15.69936811,0.0003165,70.0004,58.7002,269.5434,90.5399,2.2897e-05,2.543e-05,0.0,0 STARLINK-5506,1 55651U 23021Z   23081.22155444  .00002543  00000-0  22897-4 0  9997,2 55651  70.0004  58.7002 0003165 269.5434  90.5399 15.69936811  5644,6737.215,91.723,361.212,356.947,0.0
55651.0,STARLINK-5506,PAYLOAD,2023-03-22 16:01:18,15.6992388,0.0003283,70.0007,57.447,270.1247,89.9572,1.9607e-05,2.145e-05,0.0,0 STARLINK-5506,1 55651U 23021Z   23081.66757770  .00002145  00000-0  19607-4 0  9998,2 55651  70.0007  57.4470 0003283 270.1247  89.9572 15.69923880  5718,6737.252,91.724,361.329,356.905,0.0
55651.0,STARLINK-5506,PAYLOAD,2023-03-23 08:50:35,15.69924368,0.0003615,70.0007,55.4777,272.5646,87.5136,-5.5722e-06,-8.83e-06,0.0,0 STARLINK-5506,1 55651U 23021Z   23082.36846135 -.00000883  00000-0 -55722-5 0  9998,2 55651  70.0007  55.4777 0003615 272.5646  87.5136 15.69924368  6122,6737.25,91.724,361.551,356.68,0.0
55651.0,STARLINK-5506,PAYLOAD,2023-03-24 04:43:19,15.69967031,0.0003054,70.0021,53.1502,258.781,101.3042,8.3514e-05,9.858e-05,0.0,0 STARLINK-5506,1 55651U 23021Z   23083.19675786  .00009858  00000-0  83514-4 0  9990,2 55651  70.0021  53.1502 0003054 258.7810 101.3042 15.69967031  5950,6737.128,91.722,361.051,356.936,0.0
55651.0,STARLINK-5506,PAYLOAD,2023-03-24 07:46:51,15.69914315,0.0003288,70.0014,52.7896,273.4539,86.628,-3.3461e-05,-4.232e-05,0.0,0 STARLINK-5506,1 55651U 23021Z   23083.32421134 -.00004232  00000-0 -33461-4 0  9990,2 55651  70.0014  52.7896 0003288 273.4539  86.6280 15.69914315  5972,6737.279,91.725,361.359,356.929,0.0
55651.0,STARLINK-5506,PAYLOAD,2023-03-24 15:25:37,15.69912416,0.000317,70.001,51.8939,277.937,82.1466,-1.5873e-05,-2.12e-05,0.0,0 STARLINK-5506,1 55651U 23021Z   23083.64279941 -.00002120  00000-0 -15873-4 0  9993,2 55651  70.0010  51.8939 0003170 277.9370  82.1466 15.69912416  6325,6737.285,91.725,361.285,357.014,0.0
55651.0,STARLINK-5506,PAYLOAD,2023-03-25 00:36:11,15.69866368,0.0003474,70.0013,50.8205,276.381,83.699,-9.1449e-05,-0.00011168,0.0,0 STARLINK-5506,1 55651U 23021Z   23084.02512899 -.00011168  00000-0 -91449-4 0  9993,2 55651  70.0013  50.8205 0003474 276.3810  83.6990 15.69866368  6087,6737.416,91.728,361.622,356.941,0.0
55651.0,STARLINK-5506,PAYLOAD,2023-03-25 06:43:11,15.69887645,0.0003385,70.0011,50.1052,261.9371,98.1441,-4.8669e-05,-6.052e-05,0.0,0 STARLINK-5506,1 55651U 23021Z   23084.27998994 -.00006052  00000-0 -48669-4 0  9996,2 55651  70.0011  50.1052 0003385 261.9371  98.1441 15.69887645  6129,6737.355,91.726,361.501,356.94,0.0
55651.0,STARLINK-5506,PAYLOAD,2023-03-26 04:07:39,15.69944557,0.0003722,70.0014,47.596,270.1777,89.8992,1.2023e-05,1.234e-05,0.0,0 STARLINK-5506,1 55651U 23021Z   23085.17198951  .00001234  00000-0  12023-4 0  9991,2 55651  70.0014  47.5960 0003722 270.1777  89.8992 15.69944557  6266,6737.193,91.723,361.565,356.55,0.0
55651.0,STARLINK-5506,PAYLOAD,2023-03-26 07:11:10,15.69936293,0.0003275,70.0024,47.2382,268.6538,91.4283,1.8275e-05,1.986e-05,0.0,0 STARLINK-5506,1 55651U 23021Z   23085.29942767  .00001986  00000-0  18275-4 0  9995,2 55651  70.0024  47.2382 0003275 268.6538  91.4283 15.69936293  6284,6737.216,91.723,361.288,356.875,0.0
55651.0,STARLINK-5506,PAYLOAD,2023-03-26 22:28:43,15.69907478,0.0003375,70.0004,45.4457,275.8207,84.2604,6.8114e-05,7.98e-05,0.0,0 STARLINK-5506,1 55651U 23021Z   23085.93661226  .00007980  00000-0  68114-4 0  9991,2 55651  70.0004  45.4457 0003375 275.8207  84.2604 15.69907478  6683,6737.299,91.725,361.438,356.89,0.0
55651.0,STARLINK-5506,PAYLOAD,2023-03-27 00:00:28,15.69910918,0.0003401,70.0024,45.2667,278.8682,81.2128,6.0456e-05,7.059e-05,0.0,0 STARLINK-5506,1 55651U 23021Z   23086.00032837  .00007059  00000-0  60456-4 0  9998,2 55651  70.0024  45.2667 0003401 278.8682  81.2128 15.69910918  6395,6737.289,91.725,361.445,356.863,0.0
55651.0,STARLINK-5506,PAYLOAD,2023-03-27 07:38:16,15.71274549,0.0008244,70.0016,44.3704,309.7092,50.3377,0.0025851,0.00342704,0.0,0 STARLINK-5506,1 55651U 23021Z   23086.31824490  .00342704  00000-0  25851-2 0  9993,2 55651  70.0016  44.3704 0008244 309.7092  50.3377 15.71274549  6431,6733.39,91.645,360.806,349.704,0.0
55651.0,STARLINK-5506,PAYLOAD,2023-03-27 22:00:00,15.69942186,0.0003393,70.0022,42.6895,273.0609,224.4472,-3.4351e-05,-4.344e-05,0.0,0 STARLINK-5506,1 55651U 23021Z   23086.91667824 -.00004344  00000-0 -34351-4 0  9999,2 55651  70.0022  42.6895 0003393 273.0609 224.4472 15.69942186  6534,6737.199,91.723,361.35,356.778,0.0
55651.0,STARLINK-5506,PAYLOAD,2023-03-28 06:35:29,15.69935198,0.0003578,70.0007,41.6839,278.8796,81.1995,1.5197e-05,1.616e-05,0.0,0 STARLINK-5506,1 55651U 23021Z   23087.27464513  .00001616  00000-0  15197-4 0  9993,2 55651  70.0007  41.6839 0003578 278.8796  81.1995 15.69935198  6891,6737.219,91.724,361.495,356.674,0.0
55651.0,STARLINK-5506,PAYLOAD,2023-03-28 21:52:59,15.6992442,0.0004357,70.0011,39.8936,287.7155,72.3565,-3.466e-05,-4.38e-05,0.0,0 STARLINK-5506,1 55651U 23021Z   23087.91179608 -.00004380  00000-0 -34660-4 0  9991,2 55651  70.0011  39.8936 0004357 287.7155  72.3565 15.69924420  6999,6737.25,91.724,362.051,356.18,0.0
55651.0,STARLINK-5506,PAYLOAD,2023-03-28 23:24:44,15.69923628,0.0004685,70.0015,39.7139,290.9072,69.1621,-2.5593e-05,-3.291e-05,0.0,0 STARLINK-5506,1 55651U 23021Z   23087.97551362 -.00003291  00000-0 -25593-4 0  9993,2 55651  70.0015  39.7139 0004685 290.9072  69.1621 15.69923628  6700,6737.252,91.724,362.274,355.961,0.0
55651.0,STARLINK-5506,PAYLOAD,2023-03-29 05:31:44,15.69931704,0.0003827,70.0013,38.9976,277.4311,82.645,-8.9665e-06,-1.291e-05,0.0,0 STARLINK-5506,1 55651U 23021Z   23088.23037688 -.00001291  00000-0 -89665-5 0  9992,2 55651  70.0013  38.9976 0003827 277.4311  82.6450 15.69931704  6749,6737.229,91.724,361.673,356.516,0.0
55651.0,STARLINK-5506,PAYLOAD,2023-03-30 05:59:48,15.69927834,0.0002847,70.0024,36.1319,243.874,116.2163,4.7632e-06,3.6e-06,0.0,0 STARLINK-5506,1 55651U 23021Z   23089.24986862  .00000360  00000-0  47632-5 0  9993,2 55651  70.0024  36.1319 0002847 243.8740 116.2163 15.69927834  6908,6737.24,91.724,361.024,357.187,0.0
